KUIPER-00117            
1 65949U 25228C   26193.35815081  .00001475  00000+0  22252-3 0  9996
2 65949  51.8979 166.7906 0000627  67.0877 293.0151 14.79929660 41727
KUIPER-00121            
1 65950U 25228D   26193.26223521  .00000053  00000+0  35907-4 0  9993
2 65950  51.9002 162.2274 0000539  58.4965 301.6050 14.79932898 41787
KUIPER-00122            
1 65951U 25228E   26193.38650531  .00001559  00000+0  23340-3 0  9991
2 65951  51.8987 171.6510 0000632  66.8317 293.2712 14.79936105 41667
KUIPER-00123            
1 65952U 25228F   26193.35274340  .00000859  00000+0  14175-3 0  9997
2 65952  51.8987 171.8139 0000518  36.7516 323.3482 14.79926064 41658
KUIPER-00124            
1 65953U 25228G   26193.29329769 -.00000149  00000+0  94409-5 0  9990
2 65953  51.8984 164.5631 0000574  72.5907 287.5119 14.79930427 41753
KUIPER-00125            
1 65954U 25228H   26193.24197130  .00001692  00000+0  25095-3 0  9997
2 65954  51.9000 149.8349 0000722  77.6513 282.4530 14.79931461 41952
KUIPER-00126            
1 65955U 25228J   26193.32166917 -.00000017  00000+0  26767-4 0  9995
2 65955  51.8975 169.4690 0000653  70.7845 289.3188 14.79933020 41683
KUIPER-00127            
1 65956U 25228K   26193.31289241  .00001255  00000+0  19362-3 0  9997
2 65956  51.9006 161.9782 0000680  72.6905 287.4132 14.79926165 41799
KUIPER-00128            
1 65957U 25228L   26193.36353875  .00000137  00000+0  46937-4 0  9995
2 65957  51.9015 161.8193 0000555  71.0796 289.0226 14.79930527 41796
KUIPER-00129            
1 65958U 25228M   26193.33515783  .00001581  00000+0  23635-3 0  9994
2 65958  51.9011 156.9259 0000849  65.2162 294.8888 14.79940338 41866
KUIPER-00130            
1 65959U 25228N   26193.29867866 -.00000743  00000+0 -68511-4 0  9996
2 65959  51.9028 159.6201 0000706  97.6689 262.4354 14.79932615 32113
KUIPER-00134            
1 65960U 25228P   26192.83252214  .00026690  00000+0  62729-3 0  9993
2 65960  51.8720  77.4051 0006730  43.3049 316.8468 15.41792725 42920
KUIPER-00135            
1 65961U 25228Q   26193.33249011  .00001080  00000+0  17063-3 0  9998
2 65961  51.9006 159.5256 0000460  79.9791 280.1223 14.79931310 41826
KUIPER-00136            
1 65962U 25228R   26193.30139828  .00000080  00000+0  39499-4 0  9997
2 65962  51.9007 157.1176 0000663  57.4613 302.6414 14.79931539 41850
KUIPER-00137            
1 65963U 25228S   26193.30397167  .00009836  00000+0  13147-2 0  9998
2 65963  51.9047 154.5991 0000296  20.0282 340.0692 14.80018145 41890
KUIPER-00138            
1 65964U 25228T   26193.88079060  .00001506  00000+0  22642-3 0  9998
2 65964  51.8983 149.4783 0000660  76.3893 283.7143 14.79939539 42014
