{"fetched_at":"2026-07-13T07:47:52.862Z","source":"https://celestrak.org/NORAD/elements/gp.php?GROUP=kuiper&FORMAT=JSON","constellation":"kuiper","records":[{"OBJECT_NAME":"KUIPER-00117","OBJECT_ID":"2025-228C","EPOCH":"2026-07-12T08:35:44.229984","CLASSIFICATION_TYPE":"U","MEAN_MOTION":14.7992966,"ECCENTRICITY":0.00006278,"INCLINATION":51.8979,"RA_OF_ASC_NODE":166.7906,"ARG_OF_PERICENTER":67.0877,"MEAN_ANOMALY":293.0151,"EPHEMERIS_TYPE":0,"NORAD_CAT_ID":65949,"ELEMENT_SET_NO":999,"REV_AT_EPOCH":4172,"BSTAR":0.00022252025,"MEAN_MOTION_DOT":0.00001475,"MEAN_MOTION_DDOT":0},{"OBJECT_NAME":"KUIPER-00121","OBJECT_ID":"2025-228D","EPOCH":"2026-07-12T06:17:37.122144","CLASSIFICATION_TYPE":"U","MEAN_MOTION":14.79932898,"ECCENTRICITY":0.0000539,"INCLINATION":51.9002,"RA_OF_ASC_NODE":162.2274,"ARG_OF_PERICENTER":58.4965,"MEAN_ANOMALY":301.605,"EPHEMERIS_TYPE":0,"NORAD_CAT_ID":65950,"ELEMENT_SET_NO":999,"REV_AT_EPOCH":4178,"BSTAR":0.000035907,"MEAN_MOTION_DOT":5.3e-7,"MEAN_MOTION_DDOT":0},{"OBJECT_NAME":"KUIPER-00122","OBJECT_ID":"2025-228E","EPOCH":"2026-07-12T09:16:34.058784","CLASSIFICATION_TYPE":"U","MEAN_MOTION":14.79936105,"ECCENTRICITY":0.00006322,"INCLINATION":51.8987,"RA_OF_ASC_NODE":171.651,"ARG_OF_PERICENTER":66.8317,"MEAN_ANOMALY":293.2712,"EPHEMERIS_TYPE":0,"NORAD_CAT_ID":65951,"ELEMENT_SET_NO":999,"REV_AT_EPOCH":4166,"BSTAR":0.0002333974,"MEAN_MOTION_DOT":0.00001559,"MEAN_MOTION_DDOT":0},{"OBJECT_NAME":"KUIPER-00123","OBJECT_ID":"2025-228F","EPOCH":"2026-07-12T08:27:57.029760","CLASSIFICATION_TYPE":"U","MEAN_MOTION":14.79926064,"ECCENTRICITY":0.00005186,"INCLINATION":51.8987,"RA_OF_ASC_NODE":171.8139,"ARG_OF_PERICENTER":36.7516,"MEAN_ANOMALY":323.3482,"EPHEMERIS_TYPE":0,"NORAD_CAT_ID":65952,"ELEMENT_SET_NO":999,"REV_AT_EPOCH":4165,"BSTAR":0.00014174702,"MEAN_MOTION_DOT":0.00000859,"MEAN_MOTION_DDOT":0},{"OBJECT_NAME":"KUIPER-00124","OBJECT_ID":"2025-228G","EPOCH":"2026-07-12T07:02:20.920416","CLASSIFICATION_TYPE":"U","MEAN_MOTION":14.79930427,"ECCENTRICITY":0.00005749,"INCLINATION":51.8984,"RA_OF_ASC_NODE":164.5631,"ARG_OF_PERICENTER":72.5907,"MEAN_ANOMALY":287.5119,"EPHEMERIS_TYPE":0,"NORAD_CAT_ID":65953,"ELEMENT_SET_NO":999,"REV_AT_EPOCH":4175,"BSTAR":0.000009440918,"MEAN_MOTION_DOT":-0.00000149,"MEAN_MOTION_DDOT":0},{"OBJECT_NAME":"KUIPER-00125","OBJECT_ID":"2025-228H","EPOCH":"2026-07-12T05:48:26.320320","CLASSIFICATION_TYPE":"U","MEAN_MOTION":14.79931461,"ECCENTRICITY":0.0000722,"INCLINATION":51.9,"RA_OF_ASC_NODE":149.8349,"ARG_OF_PERICENTER":77.6513,"MEAN_ANOMALY":282.453,"EPHEMERIS_TYPE":0,"NORAD_CAT_ID":65954,"ELEMENT_SET_NO":999,"REV_AT_EPOCH":4195,"BSTAR":0.00025095,"MEAN_MOTION_DOT":0.00001692,"MEAN_MOTION_DDOT":0},{"OBJECT_NAME":"KUIPER-00126","OBJECT_ID":"2025-228J","EPOCH":"2026-07-12T07:43:12.216288","CLASSIFICATION_TYPE":"U","MEAN_MOTION":14.7993302,"ECCENTRICITY":0.00006539,"INCLINATION":51.8975,"RA_OF_ASC_NODE":169.469,"ARG_OF_PERICENTER":70.7845,"MEAN_ANOMALY":289.3188,"EPHEMERIS_TYPE":0,"NORAD_CAT_ID":65955,"ELEMENT_SET_NO":999,"REV_AT_EPOCH":4168,"BSTAR":0.000026767275,"MEAN_MOTION_DOT":-1.7e-7,"MEAN_MOTION_DDOT":0},{"OBJECT_NAME":"KUIPER-00127","OBJECT_ID":"2025-228K","EPOCH":"2026-07-12T07:30:33.904224","CLASSIFICATION_TYPE":"U","MEAN_MOTION":14.79926165,"ECCENTRICITY":0.00006808,"INCLINATION":51.9006,"RA_OF_ASC_NODE":161.9782,"ARG_OF_PERICENTER":72.6905,"MEAN_ANOMALY":287.4132,"EPHEMERIS_TYPE":0,"NORAD_CAT_ID":65956,"ELEMENT_SET_NO":999,"REV_AT_EPOCH":4179,"BSTAR":0.00019361836,"MEAN_MOTION_DOT":0.00001255,"MEAN_MOTION_DDOT":0},{"OBJECT_NAME":"KUIPER-00128","OBJECT_ID":"2025-228L","EPOCH":"2026-07-12T08:43:29.748000","CLASSIFICATION_TYPE":"U","MEAN_MOTION":14.79930527,"ECCENTRICITY":0.00005554,"INCLINATION":51.9015,"RA_OF_ASC_NODE":161.8193,"ARG_OF_PERICENTER":71.0796,"MEAN_ANOMALY":289.0226,"EPHEMERIS_TYPE":0,"NORAD_CAT_ID":65957,"ELEMENT_SET_NO":999,"REV_AT_EPOCH":4179,"BSTAR":0.000046937248,"MEAN_MOTION_DOT":0.00000137,"MEAN_MOTION_DDOT":0},{"OBJECT_NAME":"KUIPER-00129","OBJECT_ID":"2025-228M","EPOCH":"2026-07-12T08:02:37.636512","CLASSIFICATION_TYPE":"U","MEAN_MOTION":14.79940338,"ECCENTRICITY":0.00008493,"INCLINATION":51.9011,"RA_OF_ASC_NODE":156.9259,"ARG_OF_PERICENTER":65.2162,"MEAN_ANOMALY":294.8888,"EPHEMERIS_TYPE":0,"NORAD_CAT_ID":65958,"ELEMENT_SET_NO":999,"REV_AT_EPOCH":4186,"BSTAR":0.00023634788,"MEAN_MOTION_DOT":0.00001581,"MEAN_MOTION_DDOT":0},{"OBJECT_NAME":"KUIPER-00130","OBJECT_ID":"2025-228N","EPOCH":"2026-07-12T07:10:05.836224","CLASSIFICATION_TYPE":"U","MEAN_MOTION":14.79932615,"ECCENTRICITY":0.00007063,"INCLINATION":51.9028,"RA_OF_ASC_NODE":159.6201,"ARG_OF_PERICENTER":97.6689,"MEAN_ANOMALY":262.4354,"EPHEMERIS_TYPE":0,"NORAD_CAT_ID":65959,"ELEMENT_SET_NO":999,"REV_AT_EPOCH":3211,"BSTAR":-0.000068510619,"MEAN_MOTION_DOT":-0.00000743,"MEAN_MOTION_DDOT":0},{"OBJECT_NAME":"KUIPER-00134","OBJECT_ID":"2025-228P","EPOCH":"2026-07-11T19:58:49.912896","CLASSIFICATION_TYPE":"U","MEAN_MOTION":15.41792725,"ECCENTRICITY":0.00067307,"INCLINATION":51.872,"RA_OF_ASC_NODE":77.4051,"ARG_OF_PERICENTER":43.3049,"MEAN_ANOMALY":316.8468,"EPHEMERIS_TYPE":0,"NORAD_CAT_ID":65960,"ELEMENT_SET_NO":999,"REV_AT_EPOCH":4292,"BSTAR":0.00062728993,"MEAN_MOTION_DOT":0.0002669,"MEAN_MOTION_DDOT":0},{"OBJECT_NAME":"KUIPER-00135","OBJECT_ID":"2025-228Q","EPOCH":"2026-07-12T07:58:47.145504","CLASSIFICATION_TYPE":"U","MEAN_MOTION":14.7993131,"ECCENTRICITY":0.00004607,"INCLINATION":51.9006,"RA_OF_ASC_NODE":159.5256,"ARG_OF_PERICENTER":79.9791,"MEAN_ANOMALY":280.1223,"EPHEMERIS_TYPE":0,"NORAD_CAT_ID":65961,"ELEMENT_SET_NO":999,"REV_AT_EPOCH":4182,"BSTAR":0.0001706276,"MEAN_MOTION_DOT":0.0000108,"MEAN_MOTION_DDOT":0},{"OBJECT_NAME":"KUIPER-00136","OBJECT_ID":"2025-228R","EPOCH":"2026-07-12T07:14:00.811392","CLASSIFICATION_TYPE":"U","MEAN_MOTION":14.79931539,"ECCENTRICITY":0.00006639,"INCLINATION":51.9007,"RA_OF_ASC_NODE":157.1176,"ARG_OF_PERICENTER":57.4613,"MEAN_ANOMALY":302.6414,"EPHEMERIS_TYPE":0,"NORAD_CAT_ID":65962,"ELEMENT_SET_NO":999,"REV_AT_EPOCH":4185,"BSTAR":0.000039498705,"MEAN_MOTION_DOT":8e-7,"MEAN_MOTION_DDOT":0},{"OBJECT_NAME":"KUIPER-00137","OBJECT_ID":"2025-228S","EPOCH":"2026-07-12T07:17:43.152288","CLASSIFICATION_TYPE":"U","MEAN_MOTION":14.80018145,"ECCENTRICITY":0.00002962,"INCLINATION":51.9047,"RA_OF_ASC_NODE":154.5991,"ARG_OF_PERICENTER":20.0282,"MEAN_ANOMALY":340.0692,"EPHEMERIS_TYPE":0,"NORAD_CAT_ID":65963,"ELEMENT_SET_NO":999,"REV_AT_EPOCH":4189,"BSTAR":0.001314729,"MEAN_MOTION_DOT":0.00009836,"MEAN_MOTION_DDOT":0},{"OBJECT_NAME":"KUIPER-00138","OBJECT_ID":"2025-228T","EPOCH":"2026-07-12T21:08:20.307840","CLASSIFICATION_TYPE":"U","MEAN_MOTION":14.79939539,"ECCENTRICITY":0.000066,"INCLINATION":51.8983,"RA_OF_ASC_NODE":149.4783,"ARG_OF_PERICENTER":76.3893,"MEAN_ANOMALY":283.7143,"EPHEMERIS_TYPE":0,"NORAD_CAT_ID":65964,"ELEMENT_SET_NO":999,"REV_AT_EPOCH":4201,"BSTAR":0.00022642,"MEAN_MOTION_DOT":0.00001506,"MEAN_MOTION_DDOT":0}]}
